{
  "links" : {
    "next" : "https://api.nasa.gov/neo/rest/v1/feed?start_date=2014-08-16&end_date=2014-08-16&detailed=true&api_key=t0TVs3DtDT2H8Oy2Zy8m2eVrNsAVKAexjcZXUckd",
    "prev" : "https://api.nasa.gov/neo/rest/v1/feed?start_date=2014-08-14&end_date=2014-08-14&detailed=true&api_key=t0TVs3DtDT2H8Oy2Zy8m2eVrNsAVKAexjcZXUckd",
    "self" : "https://api.nasa.gov/neo/rest/v1/feed?start_date=2014-08-15&end_date=2014-08-15&detailed=true&api_key=t0TVs3DtDT2H8Oy2Zy8m2eVrNsAVKAexjcZXUckd"
  },
  "element_count" : 6,
  "near_earth_objects" : {
    "2014-08-15" : [ {
      "links" : {
        "self" : "https://api.nasa.gov/neo/rest/v1/neo/2407324?api_key=t0TVs3DtDT2H8Oy2Zy8m2eVrNsAVKAexjcZXUckd"
      },
      "neo_reference_id" : "2407324",
      "name" : "407324 (2010 OB101)",
      "nasa_jpl_url" : "http://ssd.jpl.nasa.gov/sbdb.cgi?sstr=2407324",
      "absolute_magnitude_h" : 20.7,
      "estimated_diameter" : {
        "kilometers" : {
          "estimated_diameter_min" : 0.1925550782,
          "estimated_diameter_max" : 0.4305662442
        },
        "meters" : {
          "estimated_diameter_min" : 192.5550781879,
          "estimated_diameter_max" : 430.566244241
        },
        "miles" : {
          "estimated_diameter_min" : 0.1196481415,
          "estimated_diameter_max" : 0.2675413778
        },
        "feet" : {
          "estimated_diameter_min" : 631.7424027221,
          "estimated_diameter_max" : 1412.6189567557
        }
      },
      "is_potentially_hazardous_asteroid" : false,
      "close_approach_data" : [ {
        "close_approach_date" : "2014-08-15",
        "epoch_date_close_approach" : 1408086000000,
        "relative_velocity" : {
          "kilometers_per_second" : "22.6457612379",
          "kilometers_per_hour" : "81524.7404564486",
          "miles_per_hour" : "50656.3033130639"
        },
        "miss_distance" : {
          "astronomical" : "0.3108440703",
          "lunar" : "120.9183425903",
          "kilometers" : "46501612",
          "miles" : "28894762"
        },
        "orbiting_body" : "Earth"
      } ],
      "orbital_data" : {
        "orbit_id" : "38",
        "orbit_determination_date" : "2017-04-06 09:21:46",
        "orbit_uncertainty" : "0",
        "minimum_orbit_intersection" : ".111432",
        "jupiter_tisserand_invariant" : "4.157",
        "epoch_osculation" : "2458000.5",
        "eccentricity" : ".5222659735763743",
        "semi_major_axis" : "1.616888166252531",
        "inclination" : "9.120400473116412",
        "ascending_node_longitude" : "260.9640256292153",
        "orbital_period" : "750.9627593594918",
        "perihelion_distance" : ".7724424939405344",
        "perihelion_argument" : "334.3268486047517",
        "aphelion_distance" : "2.461333838564528",
        "perihelion_time" : "2458339.022746081180",
        "mean_anomaly" : "197.7174006695512",
        "mean_motion" : ".4793846239553208",
        "equinox" : "J2000"
      }
    }, {
      "links" : {
        "self" : "https://api.nasa.gov/neo/rest/v1/neo/3581556?api_key=t0TVs3DtDT2H8Oy2Zy8m2eVrNsAVKAexjcZXUckd"
      },
      "neo_reference_id" : "3581556",
      "name" : "(2011 TK5)",
      "nasa_jpl_url" : "http://ssd.jpl.nasa.gov/sbdb.cgi?sstr=3581556",
      "absolute_magnitude_h" : 22.8,
      "estimated_diameter" : {
        "kilometers" : {
          "estimated_diameter_min" : 0.0732073989,
          "estimated_diameter_max" : 0.1636967205
        },
        "meters" : {
          "estimated_diameter_min" : 73.2073989347,
          "estimated_diameter_max" : 163.696720474
        },
        "miles" : {
          "estimated_diameter_min" : 0.0454889547,
          "estimated_diameter_max" : 0.1017163949
        },
        "feet" : {
          "estimated_diameter_min" : 240.181762721,
          "estimated_diameter_max" : 537.0627483999
        }
      },
      "is_potentially_hazardous_asteroid" : false,
      "close_approach_data" : [ {
        "close_approach_date" : "2014-08-15",
        "epoch_date_close_approach" : 1408086000000,
        "relative_velocity" : {
          "kilometers_per_second" : "21.8231239997",
          "kilometers_per_hour" : "78563.2463988322",
          "miles_per_hour" : "48816.1460748744"
        },
        "miss_distance" : {
          "astronomical" : "0.3641970179",
          "lunar" : "141.6726379395",
          "kilometers" : "54483100",
          "miles" : "33854228"
        },
        "orbiting_body" : "Earth"
      } ],
      "orbital_data" : {
        "orbit_id" : "10",
        "orbit_determination_date" : "2017-04-06 08:52:30",
        "orbit_uncertainty" : "7",
        "minimum_orbit_intersection" : ".116103",
        "jupiter_tisserand_invariant" : "6.809",
        "epoch_osculation" : "2458000.5",
        "eccentricity" : ".43393977553296",
        "semi_major_axis" : ".8534694172048414",
        "inclination" : "12.58906172493327",
        "ascending_node_longitude" : "186.0562184764647",
        "orbital_period" : "287.9919656315915",
        "perihelion_distance" : ".4831150898787264",
        "perihelion_argument" : "348.9406464125353",
        "aphelion_distance" : "1.223823744530956",
        "perihelion_time" : "2457971.948141271259",
        "mean_anomaly" : "35.69081908172267",
        "mean_motion" : "1.2500348723635",
        "equinox" : "J2000"
      }
    }, {
      "links" : {
        "self" : "https://api.nasa.gov/neo/rest/v1/neo/3667048?api_key=t0TVs3DtDT2H8Oy2Zy8m2eVrNsAVKAexjcZXUckd"
      },
      "neo_reference_id" : "3667048",
      "name" : "(2014 GQ17)",
      "nasa_jpl_url" : "http://ssd.jpl.nasa.gov/sbdb.cgi?sstr=3667048",
      "absolute_magnitude_h" : 27.1,
      "estimated_diameter" : {
        "kilometers" : {
          "estimated_diameter_min" : 0.0101054342,
          "estimated_diameter_max" : 0.0225964377
        },
        "meters" : {
          "estimated_diameter_min" : 10.1054341542,
          "estimated_diameter_max" : 22.5964377109
        },
        "miles" : {
          "estimated_diameter_min" : 0.0062792237,
          "estimated_diameter_max" : 0.0140407711
        },
        "feet" : {
          "estimated_diameter_min" : 33.1543125905,
          "estimated_diameter_max" : 74.1352966996
        }
      },
      "is_potentially_hazardous_asteroid" : false,
      "close_approach_data" : [ {
        "close_approach_date" : "2014-08-15",
        "epoch_date_close_approach" : 1408086000000,
        "relative_velocity" : {
          "kilometers_per_second" : "4.5862533024",
          "kilometers_per_hour" : "16510.511888467",
          "miles_per_hour" : "10258.9900120311"
        },
        "miss_distance" : {
          "astronomical" : "0.2383351845",
          "lunar" : "92.712387085",
          "kilometers" : "35654436",
          "miles" : "22154638"
        },
        "orbiting_body" : "Earth"
      } ],
      "orbital_data" : {
        "orbit_id" : "15",
        "orbit_determination_date" : "2017-04-06 08:41:44",
        "orbit_uncertainty" : "6",
        "minimum_orbit_intersection" : "7.81154E-5",
        "jupiter_tisserand_invariant" : "6.878",
        "epoch_osculation" : "2458000.5",
        "eccentricity" : ".2467294225645855",
        "semi_major_axis" : ".8540437643142638",
        "inclination" : ".09129518670129443",
        "ascending_node_longitude" : "79.02669839399981",
        "orbital_period" : "288.2827232870458",
        "perihelion_distance" : ".6433260395001205",
        "perihelion_argument" : "330.8489743973942",
        "aphelion_distance" : "1.064761489128407",
        "perihelion_time" : "2458093.159350268408",
        "mean_anomaly" : "244.2894027214648",
        "mean_motion" : "1.248774105833407",
        "equinox" : "J2000"
      }
    } ]
  }
}